[
    {
        "Altitude(m)": 607897.6405035645,
        "Argument of Periapsis(deg)": 0.0,
        "Eccentricity": 0.0,
        "Inclination(deg)": 60.0,
        "Latitude(deg)": -14.29308037155419,
        "Longitude(deg)": -113.38125576253823,
        "Mean Anomaly(deg)": -16.363600000000087,
        "RAAN(deg)": 355.0,
        "Satellite Name": "Test1 1583",
        "Satellite Number": 1583,
        "Semi-Major Axis(m)": 6980739.136638005,
        "Time(s)": 0
    },
    {
        "Altitude(m)": 607750.8409360886,
        "Argument of Periapsis(deg)": 0.00010418945913296404,
        "Eccentricity": 0.0,
        "Inclination(deg)": 60.0,
        "Latitude(deg)": -13.758921994109633,
        "Longitude(deg)": -113.09418623611658,
        "Mean Anomaly(deg)": -15.743493854538235,
        "RAAN(deg)": 354.99957995086027,
        "Satellite Name": "Test1 1583",
        "Satellite Number": 1583,
        "Semi-Major Axis(m)": 6980739.136638005,
        "Time(s)": 10
    }
]